#dP2018  3 20  0  0  0.00000000      96 __u+U IGS08 FIT  IAC
## 1993 172800.00000000   900.00000000 58197 0.0000000000000
+   88   C01C02C04C05C06C07C08C09C10C11C12C13C14E01E02E03E04
+        E05E07E08E09E11E12E14E18E19E24E26E30G01G02G03G04G05
+        G06G07G08G09G10G11G12G13G14G15G16G17G18G19G20G21G22
+        G23G24G25G26G27G28G29G30G31G32J01J02J03R01R02R03R04
+        R05R06R07R08R09R10R11R13R14R15R16R17R18R19R20R21R22
+        R23R24R26  0  0  0  0  0  0  0  0  0  0  0  0  0  0
++        12 11 11 12  8  8  8  8  8  8  7  8  7  7  7  7  7
++         7  7  7  7  7  7  7  7  7  7  7  7  3  3  3  4  3
++         3  3  3  3  3  3  3  3  3  3  3  3  3  3  3  3  3
++         3  3  3  3  3  3  3  3  3  3 10 11 12  6  5  5  8
++         5  7  5  5  5  5  5  5  5  5  5  5  5  5  5  5  5
++         5  5  8  0  0  0  0  0  0  0  0  0  0  0  0  0  0
%c M  cc GPS ccc cccc cccc cccc cccc ccccc ccccc ccccc ccccc
%c cc cc ccc ccc cccc cccc cccc cccc ccccc ccccc ccccc ccccc
%f  1.2500000  1.025000000  0.00000000000  0.000000000000000
%f  0.0000000  0.000000000  0.00000000000  0.000000000000000
%i    0    0    0    0      0      0      0      0         0
%i    0    0    0    0      0      0      0      0         0
/* INFORMATION & ANALYSIS CENTER (IAC)            FINAL DATA
/* S/V CLOCKS ARE ALIGNED TO GPS & GLONASS TIME RESPECTIVELY
/* USING THE BROADCAST EPHEMERIS                            
/* PCV:IGS14_1992 OL/AL:FES2004  NONE     YN ORB:CoN CLK:CoN
*  2018 03 20 18 15  0.00000000
PC01 -32300.361631  27086.513290   -898.054838    507.974280
PC02   4445.526947  41918.345853   1221.843779    664.011867
PC04 -39581.824288  14487.604195   -241.682819    -71.352778
PC05  21935.394781  35999.021319   1559.772568   -182.126488
PC06 -13637.819239  38766.360743  10389.818671    210.906568
PC07  -9632.006593  24121.893985 -33057.930224    925.899413
PC08 -25111.531457  25183.525114  22537.851262    240.002648
PC09  -5146.294304  41780.438987  -4375.345153   -297.328617
PC10   3868.661383  29992.836465 -29143.302800    -97.245866
PC11 -20819.977049  17951.611309  -4518.561871   -435.415871
PC12 -19439.352309   1690.053816 -19856.748693    396.688789
PC13  -8895.634987  26692.760827  31340.077486   -254.404018
PC14 -12647.944998  11465.119978  22141.942464    309.643831
PE01 -22289.261725 -18611.808800   5734.140914   -302.579468
PE02  22302.272304  18612.285029  -5725.674609      8.091665
PE03  11638.118719  20626.593990 -17749.345847    -11.792877
PE04 -17166.876222    340.876740  24115.907018      1.906231
PE05   -730.026114  29578.196636   -960.558019    300.397395
PE07  12634.197269 -21198.051793 -16340.862600     64.660190
PE08  17015.000404   -485.111012 -24212.342581   6620.395658
PE09 -12364.093402  21263.667170  16467.752086   6843.353365
PE11 -22572.091935  17661.582183   7454.507330   1841.855412
PE12 -26734.353210   5390.714336 -11525.237713   3755.124241
PE14  -2953.948811 -23837.907052 -18048.263858   6612.599317
PE18  -9292.802289  24710.380533   6423.948363   6343.775830
PE19 -10660.375062 -22111.464735  16537.993880     20.516222
PE24 -14069.916603   9759.089351 -24155.685395   6802.870992
PE26   5571.505564 -19475.452621 -21573.478015   6143.617311
PE30  25765.052360   6328.799832  13125.640591   5986.979599
PG01 -11210.259633 -13431.390578 -20208.450174    -35.360034
PG02 -13424.144932  14437.450345  18234.744480    168.637007
PG03 -12252.875994 -23392.958696  -3131.859760     32.918079
PG04  14605.971112  -3850.850895  21631.734057     45.894248
PG05  -3215.882341  18848.441706  18247.874531    -11.671224
PG06 -24078.420673   7107.158335   8737.860329    412.044854
PG07 -24154.027330  -6348.931559   9879.805132    220.098447
PG08   2457.317176 -23375.401761 -12176.269454    -95.011765
PG09 -13566.780979  -7213.927829  21629.048509    507.632199
PG10  17369.626856   1149.143388 -20064.804251    172.004171
PG11  -7032.384636 -15141.594512 -21217.445561   -737.457141
PG12   9748.306778  24372.636965  -4890.567401    344.268082
PG13 -11667.697057  23333.599156  -5124.326248    -95.468532
PG14  17914.172196 -17327.965283  -8643.387681    -95.340016
PG15    114.959805  23438.199263 -12330.713272   -356.262421
PG16   4335.110423 -18109.261334  18613.763548     29.798550
PG17 -18280.726190  10385.893437 -15770.452625   -114.095178
PG18  -1677.358313 -15609.234255 -21876.607078    -13.654985
PG19 -18818.095117  15745.834866 -10700.199194   -449.519610
PG20  15420.666802  21593.751943   1860.782375    503.691817
PG21  25254.978526   3675.347485   8170.973784   -417.275735
PG22  -7789.664677 -23366.497384  -9679.337611   -329.735183
PG23  -5374.955092 -18640.465353  18223.983671   -218.494233
PG24   7816.481917  14616.877647 -20917.558088    -47.507751
PG25  17627.828831  18547.767790   7396.639581   -556.576348
PG26  11891.288576  -9715.893551  21658.630308   -211.103079
PG27  12201.653356 -23431.848326    145.781614    369.768598
PG28 -17128.768330  -6058.332147 -18735.404690    698.817415
PG29  10219.323926  11173.630156  21809.652074    479.334818
PG30 -26613.595474   -928.709336    904.236781     93.018490
PG31  23783.722175  -7216.139852   9972.280849    134.113820
PG32  18174.659129 -10135.029501 -16431.197729   -527.192809
PJ01 -24384.143189  24973.874995  28719.663842   -342.246547
PJ02 -30411.848914  14570.516456 -20934.415215      0.140837
PJ03 -23651.098656  31995.109731  -9299.992344    -16.338072
PR01  -6169.745702 -24042.433490   5916.225607     23.641890
PR02 -11144.079061  -9264.668340  21015.716904    300.755766
PR03  -9137.021162  10097.315230  21616.453825    127.213702
PR04  -1483.748238  23739.661528   9250.918975    254.068540
PR05   6932.045975  23338.839517  -7604.764577   -268.137362
PR06  11507.195514   8241.881464 -21237.483479    129.068866
PR07   9000.065362 -10454.077398 -21414.901342    -33.040208
PR08   1797.030204 -23482.514480  -9745.721210     22.749968
PR09  23649.567228   9191.511685   2301.622760     40.649602
PR10  18111.872675  -1007.838699  17871.271036     20.837533
PR11   1794.641963 -11144.393927  22885.352510    -24.472160
PR13 -23876.174980  -8529.759569  -2828.955897     -8.587953
PR14 -18417.330718   1062.630951 -17613.443630     25.617503
PR15  -5435.130724   9238.043118 -23141.500152     -7.689302
PR16  15149.812505  14047.572371 -15067.757442     88.271660
PR17 -21351.399731  13015.919755  -4953.073413    118.186935
PR18 -14373.452617  17473.315163  11866.839273    188.911866
PR19    618.930672  12069.646891  22469.816671    -47.802232
PR20  16405.514905   -864.808514  19503.526966   -331.343997
PR21  21324.167414 -13199.211202   4714.010948     24.464049
PR22  12943.439464 -17235.600055 -13520.652053    -28.077830
PR23  -4182.494473  -9985.709473 -23097.871528    142.851873
PR24 -16911.563592   1752.118242 -19043.334959   -163.916408
PR26  16220.889848   -894.793247  19686.536483      6.656942
EOF
